{
"type": "FeatureCollection",
"name": "tdmc_wards_verified_new",
"crs": { "type": "name", "properties": { "name": "urn:ogc:def:crs:OGC:1.3:CRS84" } },
"features": [
{"type":"Feature","properties":{"ward_id":3,"ward_number":3,"ward_name":"Ward 3","source":"TDMC Draft Ward Formation 2025"},"geometry":{"type":"Polygon","coordinates":[[[73.691239340895592,18.738020854521444],[73.696570988310157,18.738778211190503],[73.69817048253455,18.748749757223745],[73.690306302598032,18.747866226291386],[73.691239340895592,18.738020854521444]]]}},
{"type":"Feature","properties":{"ward_id":2,"ward_number":2,"ward_name":"Ward 2","source":"TDMC Draft Ward Formation 2025"},"geometry":{"type":"Polygon","coordinates":[[[73.681642375549345,18.736758585859818],[73.69150592326632,18.738020854521444],[73.690706176154137,18.747613788032758],[73.686174275851741,18.746856470991929],[73.681642375549345,18.736758585859818]]]}},
{"type":"Feature","properties":{"ward_id":14,"ward_number":14,"ward_name":"Ward 14","source":"TDMC Draft Ward Formation 2025"},"geometry":{"type":"Polygon","coordinates":[[[73.686040984666377,18.737137267448762],[73.674178069168946,18.730699564990505],[73.674844525095764,18.737515948188751],[73.686040984666377,18.737137267448762]]]}},
{"type":"Feature","properties":{"ward_id":5,"ward_number":5,"ward_name":"Ward 5","source":"TDMC Draft Ward Formation 2025"},"geometry":{"type":"Polygon","coordinates":[[[73.694438329344337,18.725523979277025],[73.700969597427189,18.723756669807404],[73.705101624173494,18.730699564990505],[73.696437697124807,18.738273307121798],[73.690039720227318,18.737768401543761],[73.694438329344337,18.725523979277025]]]}},
{"type":"Feature","properties":{"ward_id":4,"ward_number":4,"ward_name":"Ward 4","source":"TDMC Draft Ward Formation 2025"},"geometry":{"type":"Polygon","coordinates":[[[73.693905164602867,18.727417504631685],[73.681908957920086,18.734486478498876],[73.686174275851741,18.737389721369752],[73.690173011412682,18.737768401543761],[73.693905164602867,18.727417504631685]]]}},
{"type":"Feature","properties":{"ward_id":13,"ward_number":13,"ward_name":"Ward 13","source":"TDMC Draft Ward Formation 2025"},"geometry":{"type":"Polygon","coordinates":[[[73.679109843027433,18.733224183427076],[73.686307567037105,18.725902686045028],[73.678709969471328,18.723251720850836],[73.673378322056749,18.725145271660509],[73.673911486798204,18.730447101072158],[73.679109843027433,18.733224183427076]]]}},
{"type":"Feature","properties":{"ward_id":16,"ward_number":16,"ward_name":"Ward 16","source":"TDMC Draft Ward Formation 2025"},"geometry":{"type":"Polygon","coordinates":[[[73.694438329344337,18.725902686045028],[73.689639846671213,18.724640326851947],[73.688840099559016,18.71277368969572],[73.686440858222468,18.706966308509628],[73.682308831476178,18.705072554154736],[73.672178701388475,18.712521199007014],[73.673378322056749,18.724892799444781],[73.684841363998089,18.728048675035652],[73.691905796822411,18.728806076408858],[73.694438329344337,18.725902686045028]]]}},
{"type":"Feature","properties":{"ward_id":17,"ward_number":17,"ward_name":"Ward 17","source":"TDMC Draft Ward Formation 2025"},"geometry":{"type":"Polygon","coordinates":[[[73.689773137856577,18.724766563195502],[73.697504026607717,18.72085319270996],[73.696837570680898,18.71201621649892],[73.689106681929758,18.713278669942454],[73.689773137856577,18.724766563195502]]]}},
{"type":"Feature","properties":{"ward_id":11,"ward_number":11,"ward_name":"Ward 11","source":"TDMC Draft Ward Formation 2025"},"geometry":{"type":"Polygon","coordinates":[[[73.697370735422354,18.721105670958824],[73.689906429041955,18.724640326851947],[73.694038455788245,18.72539774349913],[73.700703015056462,18.723756669807404],[73.703102256393024,18.722241818412819],[73.697370735422354,18.721105670958824]]]}},
{"type":"Feature","properties":{"ward_id":7,"ward_number":7,"ward_name":"Ward 7","source":"TDMC Draft Ward Formation 2025"},"geometry":{"type":"Polygon","coordinates":[[[73.70296896520766,18.722115580183871],[73.69937010320281,18.721610626325443],[73.703502129949115,18.717318457639177],[73.710166689217345,18.718580871504116],[73.70296896520766,18.722115580183871]]]}},
{"type":"Feature","properties":{"ward_id":10,"ward_number":10,"ward_name":"Ward 10","source":"TDMC Draft Ward Formation 2025"},"geometry":{"type":"Polygon","coordinates":[[[73.70190263572475,18.71908583441116],[73.699503394388188,18.717823424316101],[73.697104153051626,18.716434762326195],[73.697370735422354,18.720979431881521],[73.700036559129643,18.721736864931444],[73.70190263572475,18.71908583441116]]]}},
{"type":"Feature","properties":{"ward_id":9,"ward_number":9,"ward_name":"Ward 9","source":"TDMC Draft Ward Formation 2025"},"geometry":{"type":"Polygon","coordinates":[[[73.69923681201746,18.71757094116613],[73.703502129949115,18.717065973735245],[73.702302509280841,18.719338315299179],[73.69923681201746,18.71757094116613]]]}},
{"type":"Feature","properties":{"ward_id":21,"ward_number":21,"ward_name":"Ward 21","source":"TDMC Draft Ward Formation 2025"},"geometry":{"type":"Polygon","coordinates":[[[73.697104153051626,18.713657404138129],[73.701102888612553,18.714288625913024],[73.699636685573552,18.717444699449771],[73.69723744423699,18.716561004796489],[73.697104153051626,18.713657404138129]]]}},
{"type":"Feature","properties":{"ward_id":22,"ward_number":22,"ward_name":"Ward 22","source":"TDMC Draft Ward Formation 2025"},"geometry":{"type":"Polygon","coordinates":[[[73.701236179797931,18.714541113963374],[73.705368206544222,18.714793601636803],[73.703235547578387,18.717065973735245],[73.698836938461355,18.71757094116613],[73.701236179797931,18.714541113963374]]]}},
{"type":"Feature","properties":{"ward_id":8,"ward_number":8,"ward_name":"Ward 8","source":"TDMC Draft Ward Formation 2025"},"geometry":{"type":"Polygon","coordinates":[[[73.703502129949115,18.717192215734329],[73.705368206544222,18.714793601636803],[73.706301244841768,18.710501259929618],[73.714165424778287,18.704693800740547],[73.712832512924635,18.715046088933295],[73.709900106846604,18.718328389485105],[73.703502129949115,18.717192215734329]]]}},
{"type":"Feature","properties":{"ward_id":23,"ward_number":23,"ward_name":"Ward 23","source":"TDMC Draft Ward Formation 2025"},"geometry":{"type":"Polygon","coordinates":[[[73.698657842115296,18.698546626437572],[73.702995231435224,18.706208166445883],[73.703933045342254,18.708984001136162],[73.701119603621223,18.714535533883613],[73.70580867315627,18.714646562680112],[73.706160353371402,18.710538448670142],[73.713897318104273,18.704764714410477],[73.713780091365877,18.698324547642393],[73.698657842115296,18.698546626437572]]]}},
{"type":"Feature","properties":{"ward_id":20,"ward_number":20,"ward_name":"Ward 20","source":"TDMC Draft Ward Formation 2025"},"geometry":{"type":"Polygon","coordinates":[[[73.701119603621223,18.714313476071954],[73.703933045342254,18.709539162609307],[73.702878004696871,18.705875063222873],[73.699478429283943,18.704653679128537],[73.695844400394265,18.709650194685331],[73.701119603621223,18.714313476071954]]]}},
{"type":"Feature","properties":{"ward_id":18,"ward_number":18,"ward_name":"Ward 18","source":"TDMC Draft Ward Formation 2025"},"geometry":{"type":"Polygon","coordinates":[[[73.701119603621223,18.714535533883613],[73.696078853871015,18.70998329047617],[73.690686423905689,18.706319200707838],[73.686700714800892,18.708095738990014],[73.689279703045173,18.71320318264058],[73.701119603621223,18.714535533883613]]]}},
{"type":"Feature","properties":{"ward_id":19,"ward_number":19,"ward_name":"Ward 19","source":"TDMC Draft Ward Formation 2025"},"geometry":{"type":"Polygon","coordinates":[[[73.703112458173621,18.705986097703402],[73.695961627132647,18.709872258618763],[73.686935168277643,18.70798470589385],[73.682832232434464,18.705208854809701],[73.691155330859203,18.698879744084078],[73.69889229559206,18.699212861075079],[73.703112458173621,18.705986097703402]]]}},
{"type":"Feature","properties":{"ward_id":15,"ward_number":15,"ward_name":"Ward 15","source":"TDMC Draft Ward Formation 2025"},"geometry":{"type":"Polygon","coordinates":[[[73.65385813285566,18.726893541646518],[73.6579863984946,18.733037266175433],[73.662999292484727,18.74406748362982],[73.675089213284423,18.73736566522593],[73.671845575996699,18.713488276628748],[73.65385813285566,18.726893541646518]]]}},
{"type":"Feature","properties":{"ward_id":1,"ward_number":1,"ward_name":"Ward 1","source":"TDMC Draft Ward Formation 2025"},"geometry":{"type":"Polygon","coordinates":[[[73.662556978309127,18.74406748362982],[73.670960947645511,18.751746323532057],[73.685704753498811,18.746720213268187],[73.681723925918419,18.737226041181223],[73.675089213284423,18.737644912969103],[73.662556978309127,18.74406748362982]]]}},
{"type":"Feature","properties":{"ward_id":6,"ward_number":6,"ward_name":"Ward 6","source":"TDMC Draft Ward Formation 2025"},"geometry":{"type":"Polygon","coordinates":[[[73.715487241322506,18.751467099110446],[73.698089550415588,18.748954058528501],[73.696172855654666,18.738063783718221],[73.704576824991065,18.731082468963901],[73.715487241322506,18.751467099110446]]]}},
{"type":"Feature","properties":{"ward_id":12,"ward_number":12,"ward_name":"Ward 12","source":"TDMC Draft Ward Formation 2025"},"geometry":{"type":"Polygon","coordinates":[[[73.679073410588202,18.733234186743179],[73.681968113733674,18.735000827720384],[73.691359817272271,18.728787043197801],[73.684412529723161,18.727873232083645],[73.679073410588202,18.733234186743179]]]}}
]
}
