{
"type": "FeatureCollection",
"name": "tdmc_poiss_verified",
"crs": { "type": "name", "properties": { "name": "urn:ogc:def:crs:OGC:1.3:CRS84" } },
"features": [
{"type":"Feature","properties":{"full_id":"n12317640136","osm_id":"12317640136","osm_type":"node","amenity":"college","education":null,"name":"MIMER Medical College","check_date":"2026-03-09","healthcare:speciality":null,"healthcare":null,"addr:state":null,"addr:postcode":null,"addr:full":null,"addr:district":null,"religion":null,"grades":null,"description":null,"addr:street":null,"addr:city":null,"highway":null,"public_transport":null,"bus":null,"office":null,"name:mr":null,"government":null,"layer":"amenity_college","path":"Point?crs=EPSG:4326&field=full_id:string(0,0)&field=osm_id:string(0,0)&field=osm_type:string(0,0)&field=amenity:string(0,0)&field=education:string(0,0)&field=name:string(0,0)&field=check_date:string(0,0)&uid={e97c4f95-ab41-4af8-875a-0c36ba42fe13}","type":"college","poi_id":1,"ward_id":14,"ward_number":14,"ward_name":"Ward 14"},"geometry":{"type":"Point","coordinates":[73.6767914,18.7346465]}},
{"type":"Feature","properties":{"full_id":"n12317655160","osm_id":"12317655160","osm_type":"node","amenity":"college","education":null,"name":"Talegaon medical","check_date":"2026-03-12","healthcare:speciality":null,"healthcare":null,"addr:state":null,"addr:postcode":null,"addr:full":null,"addr:district":null,"religion":null,"grades":null,"description":null,"addr:street":null,"addr:city":null,"highway":null,"public_transport":null,"bus":null,"office":null,"name:mr":null,"government":null,"layer":"amenity_college","path":"Point?crs=EPSG:4326&field=full_id:string(0,0)&field=osm_id:string(0,0)&field=osm_type:string(0,0)&field=amenity:string(0,0)&field=education:string(0,0)&field=name:string(0,0)&field=check_date:string(0,0)&uid={e97c4f95-ab41-4af8-875a-0c36ba42fe13}","type":"college","poi_id":2,"ward_id":15,"ward_number":15,"ward_name":"Ward 15"},"geometry":{"type":"Point","coordinates":[73.6739725,18.7350034]}},
{"type":"Feature","properties":{"full_id":"n13629515214","osm_id":"13629515214","osm_type":"node","amenity":"college","education":"college","name":"Mimer College","check_date":"2026-03-09","healthcare:speciality":null,"healthcare":null,"addr:state":null,"addr:postcode":null,"addr:full":null,"addr:district":null,"religion":null,"grades":null,"description":null,"addr:street":null,"addr:city":null,"highway":null,"public_transport":null,"bus":null,"office":null,"name:mr":null,"government":null,"layer":"amenity_college","path":"Point?crs=EPSG:4326&field=full_id:string(0,0)&field=osm_id:string(0,0)&field=osm_type:string(0,0)&field=amenity:string(0,0)&field=education:string(0,0)&field=name:string(0,0)&field=check_date:string(0,0)&uid={e97c4f95-ab41-4af8-875a-0c36ba42fe13}","type":"college","poi_id":3,"ward_id":14,"ward_number":14,"ward_name":"Ward 14"},"geometry":{"type":"Point","coordinates":[73.6769268,18.7348864]}},
{"type":"Feature","properties":{"full_id":"n7049644686","osm_id":"7049644686","osm_type":"node","amenity":"hospital","education":null,"name":"Attharva Accident Hospital","check_date":null,"healthcare:speciality":null,"healthcare":null,"addr:state":"Maharashtra","addr:postcode":"410507","addr:full":"Plot No 17 Ekveera Society,Next To Petrol Pump,Chakan Mumbai Highway,Talegaon Dabhade","addr:district":"Pune","religion":null,"grades":null,"description":null,"addr:street":null,"addr:city":null,"highway":null,"public_transport":null,"bus":null,"office":null,"name:mr":null,"government":null,"layer":"amenity_hospital","path":"Point?crs=EPSG:4326&field=full_id:string(0,0)&field=osm_id:string(0,0)&field=osm_type:string(0,0)&field=amenity:string(0,0)&field=healthcare%3Aspeciality:string(0,0)&field=healthcare:string(0,0)&field=check_date:string(0,0)&field=name:string(0,0)&field=addr%3Astate:string(0,0)&field=addr%3Apostcode:string(0,0)&field=addr%3Afull:string(0,0)&field=addr%3Adistrict:string(0,0)&uid={f1421a0e-6da8-4d67-a450-9541d9ff0300}","type":"hospital","poi_id":4,"ward_id":15,"ward_number":15,"ward_name":"Ward 15"},"geometry":{"type":"Point","coordinates":[73.6640784,18.7317589]}},
{"type":"Feature","properties":{"full_id":"n7054683728","osm_id":"7054683728","osm_type":"node","amenity":"hospital","education":null,"name":"Pratap Memorial Hospital","check_date":null,"healthcare:speciality":null,"healthcare":null,"addr:state":"Maharashtra","addr:postcode":"410507","addr:full":"No. 1, Tulja Bhavani Society,Chakan Road,Talegaon Dabhade","addr:district":"Pune","religion":null,"grades":null,"description":null,"addr:street":null,"addr:city":null,"highway":null,"public_transport":null,"bus":null,"office":null,"name:mr":null,"government":null,"layer":"amenity_hospital","path":"Point?crs=EPSG:4326&field=full_id:string(0,0)&field=osm_id:string(0,0)&field=osm_type:string(0,0)&field=amenity:string(0,0)&field=healthcare%3Aspeciality:string(0,0)&field=healthcare:string(0,0)&field=check_date:string(0,0)&field=name:string(0,0)&field=addr%3Astate:string(0,0)&field=addr%3Apostcode:string(0,0)&field=addr%3Afull:string(0,0)&field=addr%3Adistrict:string(0,0)&uid={f1421a0e-6da8-4d67-a450-9541d9ff0300}","type":"hospital","poi_id":5,"ward_id":12,"ward_number":12,"ward_name":"Ward 12"},"geometry":{"type":"Point","coordinates":[73.6797895,18.7334507]}},
{"type":"Feature","properties":{"full_id":"n7073944683","osm_id":"7073944683","osm_type":"node","amenity":"hospital","education":null,"name":"Sevadham Hopital","check_date":null,"healthcare:speciality":null,"healthcare":null,"addr:state":"Maharashtra","addr:postcode":"410507","addr:full":"Talegaon Dabhade (Stn.), Taluka Maval","addr:district":"Pune","religion":null,"grades":null,"description":null,"addr:street":null,"addr:city":null,"highway":null,"public_transport":null,"bus":null,"office":null,"name:mr":null,"government":null,"layer":"amenity_hospital","path":"Point?crs=EPSG:4326&field=full_id:string(0,0)&field=osm_id:string(0,0)&field=osm_type:string(0,0)&field=amenity:string(0,0)&field=healthcare%3Aspeciality:string(0,0)&field=healthcare:string(0,0)&field=check_date:string(0,0)&field=name:string(0,0)&field=addr%3Astate:string(0,0)&field=addr%3Apostcode:string(0,0)&field=addr%3Afull:string(0,0)&field=addr%3Adistrict:string(0,0)&uid={f1421a0e-6da8-4d67-a450-9541d9ff0300}","type":"hospital","poi_id":7,"ward_id":15,"ward_number":15,"ward_name":"Ward 15"},"geometry":{"type":"Point","coordinates":[73.6712413,18.7327978]}},
{"type":"Feature","properties":{"full_id":"n7082352451","osm_id":"7082352451","osm_type":"node","amenity":"hospital","education":null,"name":"Rural Hospital","check_date":null,"healthcare:speciality":null,"healthcare":null,"addr:state":"Maharashtra","addr:postcode":"410507","addr:full":"8, Yashwant Nagar Approach Rd, Tapodham Colony, Yashwant Nagar, Talegaon Dabhade","addr:district":"Pune","religion":null,"grades":null,"description":null,"addr:street":null,"addr:city":null,"highway":null,"public_transport":null,"bus":null,"office":null,"name:mr":null,"government":null,"layer":"amenity_hospital","path":"Point?crs=EPSG:4326&field=full_id:string(0,0)&field=osm_id:string(0,0)&field=osm_type:string(0,0)&field=amenity:string(0,0)&field=healthcare%3Aspeciality:string(0,0)&field=healthcare:string(0,0)&field=check_date:string(0,0)&field=name:string(0,0)&field=addr%3Astate:string(0,0)&field=addr%3Apostcode:string(0,0)&field=addr%3Afull:string(0,0)&field=addr%3Adistrict:string(0,0)&uid={f1421a0e-6da8-4d67-a450-9541d9ff0300}","type":"hospital","poi_id":8,"ward_id":14,"ward_number":14,"ward_name":"Ward 14"},"geometry":{"type":"Point","coordinates":[73.6759593,18.7330277]}},
{"type":"Feature","properties":{"full_id":"n8813266506","osm_id":"8813266506","osm_type":"node","amenity":"hospital","education":null,"name":"Indrayani Hospital","check_date":null,"healthcare:speciality":null,"healthcare":null,"addr:state":"Maharashtra","addr:postcode":"410507","addr:full":"Indrayani Nagar, Varale, Talegaon Dabhade","addr:district":"Pune","religion":null,"grades":null,"description":null,"addr:street":null,"addr:city":null,"highway":null,"public_transport":null,"bus":null,"office":null,"name:mr":null,"government":null,"layer":"amenity_hospital","path":"Point?crs=EPSG:4326&field=full_id:string(0,0)&field=osm_id:string(0,0)&field=osm_type:string(0,0)&field=amenity:string(0,0)&field=healthcare%3Aspeciality:string(0,0)&field=healthcare:string(0,0)&field=check_date:string(0,0)&field=name:string(0,0)&field=addr%3Astate:string(0,0)&field=addr%3Apostcode:string(0,0)&field=addr%3Afull:string(0,0)&field=addr%3Adistrict:string(0,0)&uid={f1421a0e-6da8-4d67-a450-9541d9ff0300}","type":"hospital","poi_id":9,"ward_id":1,"ward_number":1,"ward_name":"Ward 1"},"geometry":{"type":"Point","coordinates":[73.6803903,18.7422418]}},
{"type":"Feature","properties":{"full_id":"n8814558320","osm_id":"8814558320","osm_type":"node","amenity":"hospital","education":null,"name":"Sparsh Hospital","check_date":"2026-03-12","healthcare:speciality":null,"healthcare":null,"addr:state":"Maharashtra","addr:postcode":"410506","addr:full":"Tukaram Nagar, Talegaon Dabhade","addr:district":"Pune","religion":null,"grades":null,"description":null,"addr:street":null,"addr:city":null,"highway":null,"public_transport":null,"bus":null,"office":null,"name:mr":null,"government":null,"layer":"amenity_hospital","path":"Point?crs=EPSG:4326&field=full_id:string(0,0)&field=osm_id:string(0,0)&field=osm_type:string(0,0)&field=amenity:string(0,0)&field=healthcare%3Aspeciality:string(0,0)&field=healthcare:string(0,0)&field=check_date:string(0,0)&field=name:string(0,0)&field=addr%3Astate:string(0,0)&field=addr%3Apostcode:string(0,0)&field=addr%3Afull:string(0,0)&field=addr%3Adistrict:string(0,0)&uid={f1421a0e-6da8-4d67-a450-9541d9ff0300}","type":"hospital","poi_id":10,"ward_id":19,"ward_number":19,"ward_name":"Ward 19"},"geometry":{"type":"Point","coordinates":[73.6845571,18.7040018]}},
{"type":"Feature","properties":{"full_id":"n13381078525","osm_id":"13381078525","osm_type":"node","amenity":"hospital","education":null,"name":"Samartha Hospital","check_date":"2026-03-12","healthcare:speciality":"general","healthcare":"hospital","addr:state":null,"addr:postcode":null,"addr:full":null,"addr:district":null,"religion":null,"grades":null,"description":null,"addr:street":null,"addr:city":null,"highway":null,"public_transport":null,"bus":null,"office":null,"name:mr":null,"government":null,"layer":"amenity_hospital","path":"Point?crs=EPSG:4326&field=full_id:string(0,0)&field=osm_id:string(0,0)&field=osm_type:string(0,0)&field=amenity:string(0,0)&field=healthcare%3Aspeciality:string(0,0)&field=healthcare:string(0,0)&field=check_date:string(0,0)&field=name:string(0,0)&field=addr%3Astate:string(0,0)&field=addr%3Apostcode:string(0,0)&field=addr%3Afull:string(0,0)&field=addr%3Adistrict:string(0,0)&uid={f1421a0e-6da8-4d67-a450-9541d9ff0300}","type":"hospital","poi_id":11,"ward_id":13,"ward_number":13,"ward_name":"Ward 13"},"geometry":{"type":"Point","coordinates":[73.6791991,18.7277423]}},
{"type":"Feature","properties":{"full_id":"n13629546213","osm_id":"13629546213","osm_type":"node","amenity":"hospital","education":null,"name":"UNIQUE HOSPITAL","check_date":"2026-03-09","healthcare:speciality":null,"healthcare":"hospital","addr:state":null,"addr:postcode":null,"addr:full":null,"addr:district":null,"religion":null,"grades":null,"description":null,"addr:street":null,"addr:city":null,"highway":null,"public_transport":null,"bus":null,"office":null,"name:mr":null,"government":null,"layer":"amenity_hospital","path":"Point?crs=EPSG:4326&field=full_id:string(0,0)&field=osm_id:string(0,0)&field=osm_type:string(0,0)&field=amenity:string(0,0)&field=healthcare%3Aspeciality:string(0,0)&field=healthcare:string(0,0)&field=check_date:string(0,0)&field=name:string(0,0)&field=addr%3Astate:string(0,0)&field=addr%3Apostcode:string(0,0)&field=addr%3Afull:string(0,0)&field=addr%3Adistrict:string(0,0)&uid={f1421a0e-6da8-4d67-a450-9541d9ff0300}","type":"hospital","poi_id":12,"ward_id":4,"ward_number":4,"ward_name":"Ward 4"},"geometry":{"type":"Point","coordinates":[73.6903042,18.734418]}},
{"type":"Feature","properties":{"full_id":"n13640129386","osm_id":"13640129386","osm_type":"node","amenity":"police","education":null,"name":"Police Station Talegaon Dabhade","check_date":"2026-03-12","healthcare:speciality":null,"healthcare":null,"addr:state":null,"addr:postcode":null,"addr:full":null,"addr:district":null,"religion":null,"grades":null,"description":null,"addr:street":null,"addr:city":null,"highway":null,"public_transport":null,"bus":null,"office":null,"name:mr":null,"government":null,"layer":"amenity_police","path":"Point?crs=EPSG:4326&field=full_id:string(0,0)&field=osm_id:string(0,0)&field=osm_type:string(0,0)&field=amenity:string(0,0)&field=name:string(0,0)&field=check_date:string(0,0)&uid={13c78d0a-904a-487d-9287-0494c6c62f46}","type":"police_station","poi_id":13,"ward_id":16,"ward_number":16,"ward_name":"Ward 16"},"geometry":{"type":"Point","coordinates":[73.6771428,18.7141622]}},
{"type":"Feature","properties":{"full_id":"n11533271708","osm_id":"11533271708","osm_type":"node","amenity":"school","education":null,"name":"Adarsh Vidya Mandir","check_date":"2026-03-09","healthcare:speciality":null,"healthcare":null,"addr:state":null,"addr:postcode":"410506","addr:full":null,"addr:district":"Pune","religion":"hindu","grades":"0-12","description":"Adarsh Vidya Mandir Is A High School Having Maharashtra State Board.","addr:street":"Laxmibugh Colony, Near Talegaon Nagarparishad","addr:city":"Talegaon Dabhade","highway":null,"public_transport":null,"bus":null,"office":null,"name:mr":null,"government":null,"layer":"amenity_school","path":"Point?crs=EPSG:4326&field=full_id:string(0,0)&field=osm_id:string(0,0)&field=osm_type:string(0,0)&field=amenity:string(0,0)&field=education:string(0,0)&field=religion:string(0,0)&field=name:string(0,0)&field=grades:string(0,0)&field=description:string(0,0)&field=check_date:string(0,0)&field=addr%3Astreet:string(0,0)&field=addr%3Apostcode:string(0,0)&field=addr%3Adistrict:string(0,0)&field=addr%3Acity:string(0,0)&uid={3c9f1faf-f559-4f04-9c3f-4eeef6087b0f}","type":"school","poi_id":14,"ward_id":13,"ward_number":13,"ward_name":"Ward 13"},"geometry":{"type":"Point","coordinates":[73.6819035,18.7259541]}},
{"type":"Feature","properties":{"full_id":"n13381092356","osm_id":"13381092356","osm_type":"node","amenity":"school","education":"school","name":"sawamivivekanand school","check_date":"2026-03-09","healthcare:speciality":null,"healthcare":null,"addr:state":null,"addr:postcode":null,"addr:full":null,"addr:district":null,"religion":null,"grades":"1-10","description":null,"addr:street":null,"addr:city":null,"highway":null,"public_transport":null,"bus":null,"office":null,"name:mr":null,"government":null,"layer":"amenity_school","path":"Point?crs=EPSG:4326&field=full_id:string(0,0)&field=osm_id:string(0,0)&field=osm_type:string(0,0)&field=amenity:string(0,0)&field=education:string(0,0)&field=religion:string(0,0)&field=name:string(0,0)&field=grades:string(0,0)&field=description:string(0,0)&field=check_date:string(0,0)&field=addr%3Astreet:string(0,0)&field=addr%3Apostcode:string(0,0)&field=addr%3Adistrict:string(0,0)&field=addr%3Acity:string(0,0)&uid={3c9f1faf-f559-4f04-9c3f-4eeef6087b0f}","type":"school","poi_id":15,"ward_id":13,"ward_number":13,"ward_name":"Ward 13"},"geometry":{"type":"Point","coordinates":[73.6802127,18.7274319]}},
{"type":"Feature","properties":{"full_id":"n13629424776","osm_id":"13629424776","osm_type":"node","amenity":"school","education":"school","name":"Rambhau Parulekar Vidyaniketan","check_date":"2026-03-09","healthcare:speciality":null,"healthcare":null,"addr:state":null,"addr:postcode":null,"addr:full":null,"addr:district":null,"religion":null,"grades":null,"description":null,"addr:street":null,"addr:city":null,"highway":null,"public_transport":null,"bus":null,"office":null,"name:mr":null,"government":null,"layer":"amenity_school","path":"Point?crs=EPSG:4326&field=full_id:string(0,0)&field=osm_id:string(0,0)&field=osm_type:string(0,0)&field=amenity:string(0,0)&field=education:string(0,0)&field=religion:string(0,0)&field=name:string(0,0)&field=grades:string(0,0)&field=description:string(0,0)&field=check_date:string(0,0)&field=addr%3Astreet:string(0,0)&field=addr%3Apostcode:string(0,0)&field=addr%3Adistrict:string(0,0)&field=addr%3Acity:string(0,0)&uid={3c9f1faf-f559-4f04-9c3f-4eeef6087b0f}","type":"school","poi_id":16,"ward_id":4,"ward_number":4,"ward_name":"Ward 4"},"geometry":{"type":"Point","coordinates":[73.684571,18.7346874]}},
{"type":"Feature","properties":{"full_id":"n13629472707","osm_id":"13629472707","osm_type":"node","amenity":"school","education":"school","name":"Adarsh Vidyamandir, Talegaon Dabhade","check_date":"2026-03-09","healthcare:speciality":null,"healthcare":null,"addr:state":null,"addr:postcode":null,"addr:full":null,"addr:district":null,"religion":null,"grades":null,"description":null,"addr:street":null,"addr:city":null,"highway":null,"public_transport":null,"bus":null,"office":null,"name:mr":null,"government":null,"layer":"amenity_school","path":"Point?crs=EPSG:4326&field=full_id:string(0,0)&field=osm_id:string(0,0)&field=osm_type:string(0,0)&field=amenity:string(0,0)&field=education:string(0,0)&field=religion:string(0,0)&field=name:string(0,0)&field=grades:string(0,0)&field=description:string(0,0)&field=check_date:string(0,0)&field=addr%3Astreet:string(0,0)&field=addr%3Apostcode:string(0,0)&field=addr%3Adistrict:string(0,0)&field=addr%3Acity:string(0,0)&uid={3c9f1faf-f559-4f04-9c3f-4eeef6087b0f}","type":"school","poi_id":17,"ward_id":13,"ward_number":13,"ward_name":"Ward 13"},"geometry":{"type":"Point","coordinates":[73.6819137,18.725972]}},
{"type":"Feature","properties":{"full_id":"n13640160793","osm_id":"13640160793","osm_type":"node","amenity":"school","education":"school","name":"Hutching School Talegaon","check_date":"2026-03-12","healthcare:speciality":null,"healthcare":null,"addr:state":null,"addr:postcode":null,"addr:full":null,"addr:district":null,"religion":null,"grades":null,"description":null,"addr:street":null,"addr:city":null,"highway":null,"public_transport":null,"bus":null,"office":null,"name:mr":null,"government":null,"layer":"amenity_school","path":"Point?crs=EPSG:4326&field=full_id:string(0,0)&field=osm_id:string(0,0)&field=osm_type:string(0,0)&field=amenity:string(0,0)&field=education:string(0,0)&field=religion:string(0,0)&field=name:string(0,0)&field=grades:string(0,0)&field=description:string(0,0)&field=check_date:string(0,0)&field=addr%3Astreet:string(0,0)&field=addr%3Apostcode:string(0,0)&field=addr%3Adistrict:string(0,0)&field=addr%3Acity:string(0,0)&uid={3c9f1faf-f559-4f04-9c3f-4eeef6087b0f}","type":"school","poi_id":18,"ward_id":13,"ward_number":13,"ward_name":"Ward 13"},"geometry":{"type":"Point","coordinates":[73.6761506,18.729822]}},
{"type":"Feature","properties":{"full_id":"n13380897046","osm_id":"13380897046","osm_type":"node","amenity":null,"education":null,"name":"Maruti Mandir Bus top","check_date":null,"healthcare:speciality":null,"healthcare":null,"addr:state":null,"addr:postcode":null,"addr:full":null,"addr:district":null,"religion":null,"grades":null,"description":null,"addr:street":null,"addr:city":null,"highway":"bus_stop","public_transport":"platform","bus":"yes","office":null,"name:mr":null,"government":null,"layer":"highway_bus_stop","path":"Point?crs=EPSG:4326&field=full_id:string(0,0)&field=osm_id:string(0,0)&field=osm_type:string(0,0)&field=highway:string(0,0)&field=public_transport:string(0,0)&field=name:string(0,0)&field=bus:string(0,0)&uid={f1a1c690-d5ed-46ca-a173-232202cde573}","type":"bus_stop","poi_id":19,"ward_id":16,"ward_number":16,"ward_name":"Ward 16"},"geometry":{"type":"Point","coordinates":[73.6827627,18.7197308]}},
{"type":"Feature","properties":{"full_id":"n13384717082","osm_id":"13384717082","osm_type":"node","amenity":null,"education":null,"name":null,"check_date":null,"healthcare:speciality":null,"healthcare":null,"addr:state":null,"addr:postcode":null,"addr:full":null,"addr:district":null,"religion":null,"grades":null,"description":null,"addr:street":null,"addr:city":null,"highway":"bus_stop","public_transport":"platform","bus":"yes","office":null,"name:mr":null,"government":null,"layer":"highway_bus_stop","path":"Point?crs=EPSG:4326&field=full_id:string(0,0)&field=osm_id:string(0,0)&field=osm_type:string(0,0)&field=highway:string(0,0)&field=public_transport:string(0,0)&field=name:string(0,0)&field=bus:string(0,0)&uid={f1a1c690-d5ed-46ca-a173-232202cde573}","type":"bus_stop","poi_id":20,"ward_id":16,"ward_number":16,"ward_name":"Ward 16"},"geometry":{"type":"Point","coordinates":[73.6755277,18.7155784]}},
{"type":"Feature","properties":{"full_id":"n13384717556","osm_id":"13384717556","osm_type":"node","amenity":null,"education":null,"name":null,"check_date":null,"healthcare:speciality":null,"healthcare":null,"addr:state":null,"addr:postcode":null,"addr:full":null,"addr:district":null,"religion":null,"grades":null,"description":null,"addr:street":null,"addr:city":null,"highway":"bus_stop","public_transport":"platform","bus":"yes","office":null,"name:mr":null,"government":null,"layer":"highway_bus_stop","path":"Point?crs=EPSG:4326&field=full_id:string(0,0)&field=osm_id:string(0,0)&field=osm_type:string(0,0)&field=highway:string(0,0)&field=public_transport:string(0,0)&field=name:string(0,0)&field=bus:string(0,0)&uid={f1a1c690-d5ed-46ca-a173-232202cde573}","type":"bus_stop","poi_id":21,"ward_id":16,"ward_number":16,"ward_name":"Ward 16"},"geometry":{"type":"Point","coordinates":[73.6798803,18.7180592]}},
{"type":"Feature","properties":{"full_id":"n13384727690","osm_id":"13384727690","osm_type":"node","amenity":null,"education":null,"name":"Jijamata chowk","check_date":null,"healthcare:speciality":null,"healthcare":null,"addr:state":null,"addr:postcode":null,"addr:full":null,"addr:district":null,"religion":null,"grades":null,"description":null,"addr:street":null,"addr:city":null,"highway":"bus_stop","public_transport":"platform","bus":"yes","office":null,"name:mr":null,"government":null,"layer":"highway_bus_stop","path":"Point?crs=EPSG:4326&field=full_id:string(0,0)&field=osm_id:string(0,0)&field=osm_type:string(0,0)&field=highway:string(0,0)&field=public_transport:string(0,0)&field=name:string(0,0)&field=bus:string(0,0)&uid={f1a1c690-d5ed-46ca-a173-232202cde573}","type":"bus_stop","poi_id":22,"ward_id":16,"ward_number":16,"ward_name":"Ward 16"},"geometry":{"type":"Point","coordinates":[73.6844028,18.7216587]}},
{"type":"Feature","properties":{"full_id":"n13384729506","osm_id":"13384729506","osm_type":"node","amenity":null,"education":null,"name":null,"check_date":null,"healthcare:speciality":null,"healthcare":null,"addr:state":null,"addr:postcode":null,"addr:full":null,"addr:district":null,"religion":null,"grades":null,"description":null,"addr:street":null,"addr:city":null,"highway":"bus_stop","public_transport":"platform","bus":"yes","office":null,"name:mr":null,"government":null,"layer":"highway_bus_stop","path":"Point?crs=EPSG:4326&field=full_id:string(0,0)&field=osm_id:string(0,0)&field=osm_type:string(0,0)&field=highway:string(0,0)&field=public_transport:string(0,0)&field=name:string(0,0)&field=bus:string(0,0)&uid={f1a1c690-d5ed-46ca-a173-232202cde573}","type":"bus_stop","poi_id":23,"ward_id":16,"ward_number":16,"ward_name":"Ward 16"},"geometry":{"type":"Point","coordinates":[73.6817814,18.7242785]}},
{"type":"Feature","properties":{"full_id":"n13385238062","osm_id":"13385238062","osm_type":"node","amenity":null,"education":null,"name":null,"check_date":null,"healthcare:speciality":null,"healthcare":null,"addr:state":null,"addr:postcode":null,"addr:full":null,"addr:district":null,"religion":null,"grades":null,"description":null,"addr:street":null,"addr:city":null,"highway":"bus_stop","public_transport":"platform","bus":"yes","office":null,"name:mr":null,"government":null,"layer":"highway_bus_stop","path":"Point?crs=EPSG:4326&field=full_id:string(0,0)&field=osm_id:string(0,0)&field=osm_type:string(0,0)&field=highway:string(0,0)&field=public_transport:string(0,0)&field=name:string(0,0)&field=bus:string(0,0)&uid={f1a1c690-d5ed-46ca-a173-232202cde573}","type":"bus_stop","poi_id":24,"ward_id":13,"ward_number":13,"ward_name":"Ward 13"},"geometry":{"type":"Point","coordinates":[73.6805666,18.7255337]}},
{"type":"Feature","properties":{"full_id":"n11269469119","osm_id":"11269469119","osm_type":"node","amenity":null,"education":null,"name":"Talathi Office","check_date":null,"healthcare:speciality":null,"healthcare":null,"addr:state":null,"addr:postcode":null,"addr:full":null,"addr:district":null,"religion":null,"grades":null,"description":null,"addr:street":null,"addr:city":null,"highway":null,"public_transport":null,"bus":null,"office":"government","name:mr":"तलाठी कार्यालय","government":"register_office","layer":"office_government","path":"Point?crs=EPSG:4326&field=full_id:string(0,0)&field=osm_id:string(0,0)&field=osm_type:string(0,0)&field=office:string(0,0)&field=name%3Amr:string(0,0)&field=name:string(0,0)&field=government:string(0,0)&uid={2243dfb5-085c-4dfd-9d4f-14032ae51b06}","type":"government_office","poi_id":25,"ward_id":19,"ward_number":19,"ward_name":"Ward 19"},"geometry":{"type":"Point","coordinates":[73.6881854,18.7047624]}},
{"type":"Feature","properties":{"full_id":"n11269469120","osm_id":"11269469120","osm_type":"node","amenity":null,"education":null,"name":"Aadhar Kendra","check_date":null,"healthcare:speciality":null,"healthcare":null,"addr:state":null,"addr:postcode":null,"addr:full":null,"addr:district":null,"religion":null,"grades":null,"description":null,"addr:street":null,"addr:city":null,"highway":null,"public_transport":null,"bus":null,"office":"government","name:mr":"आधार केंद्र","government":null,"layer":"office_government","path":"Point?crs=EPSG:4326&field=full_id:string(0,0)&field=osm_id:string(0,0)&field=osm_type:string(0,0)&field=office:string(0,0)&field=name%3Amr:string(0,0)&field=name:string(0,0)&field=government:string(0,0)&uid={2243dfb5-085c-4dfd-9d4f-14032ae51b06}","type":"government_office","poi_id":26,"ward_id":19,"ward_number":19,"ward_name":"Ward 19"},"geometry":{"type":"Point","coordinates":[73.6882619,18.7048056]}}
]
}
