{
"type": "FeatureCollection",
"name": "tdmc_municipal_boundary",
"crs": { "type": "name", "properties": { "name": "urn:ogc:def:crs:OGC:1.3:CRS84" } },
"features": [
{"type":"Feature","properties":{"fid":null,"area_km2":25.26377096264811,"municipality":"Talegaon-Dabhade Municipal Council","source":"TDMC boundary reference map - georeferenced in QGIS","status":"reference_digitized","boundary_type":"municipal_boundary"},"geometry":{"type":"Polygon","coordinates":[[[73.690967098540014,18.699181357038846],[73.653520540656814,18.726886905548216],[73.655283951969878,18.729834037191683],[73.65777347382361,18.733174057585899],[73.662752517531075,18.744077782105979],[73.670843463555698,18.75183766168691],[73.685573134523608,18.746926386934064],[73.715654856922853,18.751641213440564],[73.701132646109428,18.723645001383741],[73.70994970267472,18.718831150200035],[73.713165335069121,18.714999619673726],[73.713476525300834,18.707041548158571],[73.713476525300834,18.698297062695218],[73.710572083138146,18.697805786063913],[73.690967098540014,18.699181357038846]]]}}
]
}
